CCSDS_OMM_VERS = 2.0
CREATION_DATE  = 
ORIGINATOR     = 

OBJECT_NAME    = STARLINK-36797
OBJECT_ID      = 2026-032U
CENTER_NAME    = EARTH
REF_FRAME      = TEME
TIME_SYSTEM    = UTC
MEAN_ELEMENT_THEORY = SGP/SGP4

EPOCH          = 2026-02-24T11:36:19.810368
MEAN_MOTION    = 15.91731054
ECCENTRICITY   = .0000754
INCLINATION    = 97.2832
RA_OF_ASC_NODE = 241.3027
ARG_OF_PERICENTER = 93.9098
MEAN_ANOMALY   = 266.2262

EPHEMERIS_TYPE = 0
CLASSIFICATION_TYPE = U
NORAD_CAT_ID   = 67815
ELEMENT_SET_NO = 999
REV_AT_EPOCH   = 270
BSTAR          = -.23158E-2
MEAN_MOTION_DOT = -.751073E-2
MEAN_MOTION_DDOT = .17603E-3

CCSDS_OMM_VERS = 2.0
CREATION_DATE  = 
ORIGINATOR     = 

OBJECT_NAME    = STARLINK-36343
OBJECT_ID      = 2026-032V
CENTER_NAME    = EARTH
REF_FRAME      = TEME
TIME_SYSTEM    = UTC
MEAN_ELEMENT_THEORY = SGP/SGP4

EPOCH          = 2026-02-24T11:35:00.767328
MEAN_MOTION    = 15.91984954
ECCENTRICITY   = .0000822
INCLINATION    = 97.2832
RA_OF_ASC_NODE = 241.3030
ARG_OF_PERICENTER = 100.0453
MEAN_ANOMALY   = 260.0914

EPHEMERIS_TYPE = 0
CLASSIFICATION_TYPE = U
NORAD_CAT_ID   = 67816
ELEMENT_SET_NO = 999
REV_AT_EPOCH   = 270
BSTAR          = -.22464E-2
MEAN_MOTION_DOT = -.738182E-2
MEAN_MOTION_DDOT = .17087E-3

CCSDS_OMM_VERS = 2.0
CREATION_DATE  = 
ORIGINATOR     = 

OBJECT_NAME    = STARLINK-36756
OBJECT_ID      = 2026-032W
CENTER_NAME    = EARTH
REF_FRAME      = TEME
TIME_SYSTEM    = UTC
MEAN_ELEMENT_THEORY = SGP/SGP4

EPOCH          = 2026-02-24T11:31:31.769184
MEAN_MOTION    = 15.92700579
ECCENTRICITY   = .0005081
INCLINATION    = 97.2821
RA_OF_ASC_NODE = 241.3056
ARG_OF_PERICENTER = 110.0411
MEAN_ANOMALY   = 250.1411

EPHEMERIS_TYPE = 0
CLASSIFICATION_TYPE = U
NORAD_CAT_ID   = 67817
ELEMENT_SET_NO = 999
REV_AT_EPOCH   = 269
BSTAR          = -.21561E-2
MEAN_MOTION_DOT = -.736062E-2
MEAN_MOTION_DDOT = .17121E-3

CCSDS_OMM_VERS = 2.0
CREATION_DATE  = 
ORIGINATOR     = 

OBJECT_NAME    = STARLINK-36346
OBJECT_ID      = 2026-032X
CENTER_NAME    = EARTH
REF_FRAME      = TEME
TIME_SYSTEM    = UTC
MEAN_ELEMENT_THEORY = SGP/SGP4

EPOCH          = 2026-02-24T11:30:01.755072
MEAN_MOTION    = 15.92979909
ECCENTRICITY   = .000511
INCLINATION    = 97.2825
RA_OF_ASC_NODE = 241.3074
ARG_OF_PERICENTER = 108.2068
MEAN_ANOMALY   = 251.9763

EPHEMERIS_TYPE = 0
CLASSIFICATION_TYPE = U
NORAD_CAT_ID   = 67818
ELEMENT_SET_NO = 999
REV_AT_EPOCH   = 270
BSTAR          = -.21376E-2
MEAN_MOTION_DOT = -.740392E-2
MEAN_MOTION_DDOT = .17361E-3

CCSDS_OMM_VERS = 2.0
CREATION_DATE  = 
ORIGINATOR     = 

OBJECT_NAME    = STARLINK-36788
OBJECT_ID      = 2026-032Y
CENTER_NAME    = EARTH
REF_FRAME      = TEME
TIME_SYSTEM    = UTC
MEAN_ELEMENT_THEORY = SGP/SGP4

EPOCH          = 2026-02-24T11:33:39.038112
MEAN_MOTION    = 15.92228302
ECCENTRICITY   = .0000924
INCLINATION    = 97.2841
RA_OF_ASC_NODE = 241.3054
ARG_OF_PERICENTER = 98.4878
MEAN_ANOMALY   = 261.6501

EPHEMERIS_TYPE = 0
CLASSIFICATION_TYPE = U
NORAD_CAT_ID   = 67819
ELEMENT_SET_NO = 999
REV_AT_EPOCH   = 270
BSTAR          = -.22454E-2
MEAN_MOTION_DOT = -.74711E-2
MEAN_MOTION_DDOT = .17519E-3

CCSDS_OMM_VERS = 2.0
CREATION_DATE  = 
ORIGINATOR     = 

OBJECT_NAME    = STARLINK-36353
OBJECT_ID      = 2026-032Z
CENTER_NAME    = EARTH
REF_FRAME      = TEME
TIME_SYSTEM    = UTC
MEAN_ELEMENT_THEORY = SGP/SGP4

EPOCH          = 2026-02-24T11:32:32.313120
MEAN_MOTION    = 15.92510786
ECCENTRICITY   = .0004921
INCLINATION    = 97.2831
RA_OF_ASC_NODE = 241.3047
ARG_OF_PERICENTER = 109.0289
MEAN_ANOMALY   = 251.1519

EPHEMERIS_TYPE = 0
CLASSIFICATION_TYPE = U
NORAD_CAT_ID   = 67820
ELEMENT_SET_NO = 999
REV_AT_EPOCH   = 270
BSTAR          = -.2181E-2
MEAN_MOTION_DOT = -.737222E-2
MEAN_MOTION_DDOT = .17138E-3

CCSDS_OMM_VERS = 2.0
CREATION_DATE  = 
ORIGINATOR     = 

OBJECT_NAME    = STARLINK-36644
OBJECT_ID      = 2026-033A
CENTER_NAME    = EARTH
REF_FRAME      = TEME
TIME_SYSTEM    = UTC
MEAN_ELEMENT_THEORY = SGP/SGP4

EPOCH          = 2026-02-25T19:48:23.785056
MEAN_MOTION    = 15.82357663
ECCENTRICITY   = .0002342
INCLINATION    = 42.9976
RA_OF_ASC_NODE = 344.2364
ARG_OF_PERICENTER = 174.2181
MEAN_ANOMALY   = 185.8718

EPHEMERIS_TYPE = 0
CLASSIFICATION_TYPE = U
NORAD_CAT_ID   = 67821
ELEMENT_SET_NO = 999
REV_AT_EPOCH   = 274
BSTAR          = .24682E-2
MEAN_MOTION_DOT = .563352E-2
MEAN_MOTION_DDOT = 0

CCSDS_OMM_VERS = 2.0
CREATION_DATE  = 
ORIGINATOR     = 

OBJECT_NAME    = STARLINK-36643
OBJECT_ID      = 2026-033B
CENTER_NAME    = EARTH
REF_FRAME      = TEME
TIME_SYSTEM    = UTC
MEAN_ELEMENT_THEORY = SGP/SGP4

EPOCH          = 2026-02-25T19:47:18.802752
MEAN_MOTION    = 15.82332671
ECCENTRICITY   = .0003305
INCLINATION    = 42.9980
RA_OF_ASC_NODE = 344.2291
ARG_OF_PERICENTER = 169.5143
MEAN_ANOMALY   = 190.5798

EPHEMERIS_TYPE = 0
CLASSIFICATION_TYPE = U
NORAD_CAT_ID   = 67822
ELEMENT_SET_NO = 999
REV_AT_EPOCH   = 274
BSTAR          = .1688E-2
MEAN_MOTION_DOT = .376355E-2
MEAN_MOTION_DDOT = 0

CCSDS_OMM_VERS = 2.0
CREATION_DATE  = 
ORIGINATOR     = 

OBJECT_NAME    = STARLINK-36646
OBJECT_ID      = 2026-033C
CENTER_NAME    = EARTH
REF_FRAME      = TEME
TIME_SYSTEM    = UTC
MEAN_ELEMENT_THEORY = SGP/SGP4

EPOCH          = 2026-02-25T04:37:14.230848
MEAN_MOTION    = 15.83650553
ECCENTRICITY   = .0004006
INCLINATION    = 42.9981
RA_OF_ASC_NODE = 348.0945
ARG_OF_PERICENTER = 346.2528
MEAN_ANOMALY   = 13.8235

EPHEMERIS_TYPE = 0
CLASSIFICATION_TYPE = U
NORAD_CAT_ID   = 67823
ELEMENT_SET_NO = 999
REV_AT_EPOCH   = 264
BSTAR          = -.29901E-3
MEAN_MOTION_DOT = -.68073E-3
MEAN_MOTION_DDOT = 0

CCSDS_OMM_VERS = 2.0
CREATION_DATE  = 
ORIGINATOR     = 

OBJECT_NAME    = STARLINK-36647
OBJECT_ID      = 2026-033D
CENTER_NAME    = EARTH
REF_FRAME      = TEME
TIME_SYSTEM    = UTC
MEAN_ELEMENT_THEORY = SGP/SGP4

EPOCH          = 2026-02-25T04:36:13.779360
MEAN_MOTION    = 15.83902270
ECCENTRICITY   = .0003322
INCLINATION    = 42.9982
RA_OF_ASC_NODE = 348.0875
ARG_OF_PERICENTER = 352.4056
MEAN_ANOMALY   = 7.6766

EPHEMERIS_TYPE = 0
CLASSIFICATION_TYPE = U
NORAD_CAT_ID   = 67824
ELEMENT_SET_NO = 999
REV_AT_EPOCH   = 264
BSTAR          = -.36225E-3
MEAN_MOTION_DOT = -.83183E-3
MEAN_MOTION_DDOT = 0

CCSDS_OMM_VERS = 2.0
CREATION_DATE  = 
ORIGINATOR     = 

OBJECT_NAME    = STARLINK-36648
OBJECT_ID      = 2026-033E
CENTER_NAME    = EARTH
REF_FRAME      = TEME
TIME_SYSTEM    = UTC
MEAN_ELEMENT_THEORY = SGP/SGP4

EPOCH          = 2026-02-25T04:35:13.426368
MEAN_MOTION    = 15.84116052
ECCENTRICITY   = .0004081
INCLINATION    = 42.9986
RA_OF_ASC_NODE = 348.0819
ARG_OF_PERICENTER = 350.4694
MEAN_ANOMALY   = 9.6101

EPHEMERIS_TYPE = 0
CLASSIFICATION_TYPE = U
NORAD_CAT_ID   = 67825
ELEMENT_SET_NO = 999
REV_AT_EPOCH   = 264
BSTAR          = -.20681E-3
MEAN_MOTION_DOT = -.48416E-3
MEAN_MOTION_DDOT = 0

CCSDS_OMM_VERS = 2.0
CREATION_DATE  = 
ORIGINATOR     = 

OBJECT_NAME    = STARLINK-35865
OBJECT_ID      = 2026-033F
CENTER_NAME    = EARTH
REF_FRAME      = TEME
TIME_SYSTEM    = UTC
MEAN_ELEMENT_THEORY = SGP/SGP4

EPOCH          = 2026-02-25T04:34:15.597120
MEAN_MOTION    = 15.84385384
ECCENTRICITY   = .0004255
INCLINATION    = 42.9985
RA_OF_ASC_NODE = 348.0771
ARG_OF_PERICENTER = 342.5609
MEAN_ANOMALY   = 17.5117

EPHEMERIS_TYPE = 0
CLASSIFICATION_TYPE = U
NORAD_CAT_ID   = 67826
ELEMENT_SET_NO = 999
REV_AT_EPOCH   = 264
BSTAR          = .16888E-2
MEAN_MOTION_DOT = .416939E-2
MEAN_MOTION_DDOT = 0

